[{"OBJECT_NAME":"OBJECT B","OBJECT_ID":"2025-226B","EPOCH":"2026-03-09T23:02:31.139232","MEAN_MOTION":15.09715314,"ECCENTRICITY":0.00204156,"INCLINATION":97.6443,"RA_OF_ASC_NODE":147.8366,"ARG_OF_PERICENTER":114.3969,"MEAN_ANOMALY":245.9393,"EPHEMERIS_TYPE":0,"CLASSIFICATION_TYPE":"U","NORAD_CAT_ID":65939,"ELEMENT_SET_NO":999,"REV_AT_EPOCH":2260,"BSTAR":0.00038297064,"MEAN_MOTION_DOT":6.14e-5,"MEAN_MOTION_DDOT":0},{"OBJECT_NAME":"COSMOS 397 DEB","OBJECT_ID":"1971-015E","EPOCH":"2026-03-09T10:30:57.269376","MEAN_MOTION":14.28908045,"ECCENTRICITY":0.03830098,"INCLINATION":65.6692,"RA_OF_ASC_NODE":75.3326,"ARG_OF_PERICENTER":62.267,"MEAN_ANOMALY":301.6716,"EPHEMERIS_TYPE":0,"CLASSIFICATION_TYPE":"U","NORAD_CAT_ID":5011,"ELEMENT_SET_NO":999,"REV_AT_EPOCH":70661,"BSTAR":0.0012879344,"MEAN_MOTION_DOT":7.13e-5,"MEAN_MOTION_DDOT":0}]
